     2.100          NAVIGATION                              RINEX VERSION / TYPE
fic2rin                                 02/17/2013 00:30:51 PGM / RUN BY / DATE
                                                            END OF HEADER
18 13  2 16 20  0  0.0  .239734537899D-03  .193267624127D-11  .000000000000D+00
     .130000000000D+03  .604062500000D+02  .527379110314D-08 -.135804511752D+01
     .328756868839D-05  .137450525071D-01  .916793942451D-05  .515376452255D+04
     .590400000000D+06  .284984707832D-06  .146162735835D+01  .180676579475D-06
     .927609219859D+00  .181843750000D+03 -.212792970616D+01 -.828784522202D-08
     .928610108910D-11  .100000000000D+01  .172700000000D+04  .000000000000D+00
     .340000000000D+01  .000000000000D+00 -.107102096081D-07  .130000000000D+03
     .583206000000D+06  .400000000000D+01
19 13  2 16 20  0  0.0 -.349190086126D-03 -.318323145621D-11  .000000000000D+00
     .700000000000D+01 -.175937500000D+02  .455483258420D-08  .274050274046D+01
    -.851228833199D-06  .891414401121D-02  .645965337753D-05  .515366533279D+04
     .590400000000D+06 -.137835741043D-06 -.544098005397D+00 -.856816768646D-07
     .962102987817D+00  .256343750000D+03  .277295549924D+00 -.800354766560D-08
     .230366738556D-09  .100000000000D+01  .172700000000D+04  .000000000000D+00
     .240000000000D+01  .000000000000D+00 -.149011611938D-07  .700000000000D+01
     .583206000000D+06  .400000000000D+01
20 13  2 16 20  0  0.0  .844225287437D-04  .159161572810D-11  .000000000000D+00
     .300000000000D+02  .442812500000D+02  .535593738200D-08 -.786835287305D+00
     .239722430706D-05  .558355485555D-02  .920891761780D-05  .515380430794D+04
     .590400000000D+06 -.260770320892D-07  .140806856549D+01  .931322574615D-07
     .928310055634D+00  .190000000000D+03  .129053242539D+01 -.843535136624D-08
     .371444043564D-10  .100000000000D+01  .172700000000D+04  .000000000000D+00
     .240000000000D+01  .000000000000D+00 -.791624188423D-08  .300000000000D+02
     .583206000000D+06  .400000000000D+01
21 13  2 16 20  0  0.0 -.281038694084D-03 -.227373675443D-11  .000000000000D+00
     .960000000000D+02 -.176250000000D+02  .540915388440D-08 -.259470197415D+00
    -.748783349991D-06  .198784980457D-01  .807084143162D-05  .515372544670D+04
     .590400000000D+06 -.931322574615D-08  .413136151133D+00  .299885869026D-06
     .931851037142D+00  .212468750000D+03 -.217554696989D+01 -.873036365469D-08
    -.817891211309D-10  .100000000000D+01  .172700000000D+04  .000000000000D+00
     .240000000000D+01  .000000000000D+00 -.111758708954D-07  .960000000000D+02
     .583206000000D+06  .400000000000D+01
22 13  2 16 20  0  0.0  .158651731908D-03  .125055521494D-11  .000000000000D+00
     .810000000000D+02  .527500000000D+02  .526771942166D-08 -.198039588371D+01
     .269338488579D-05  .620814610738D-02  .922568142414D-05  .515366046143D+04
     .590400000000D+06  .838190317154D-07  .146444025431D+01 -.931322574615D-08
     .925348601809D+00  .179312500000D+03 -.203874851136D+01 -.825748681461D-08
     .457161899771D-10  .100000000000D+01  .172700000000D+04  .000000000000D+00
     .340000000000D+01  .000000000000D+00 -.172294676304D-07  .810000000000D+02
     .583206000000D+06  .400000000000D+01
23 13  2 16 20  0  0.0  .113269314170D-03 -.375166564481D-11  .000000000000D+00
     .980000000000D+02  .473125000000D+02  .485948813147D-08  .229359260486D+01
     .249780714512D-05  .819904811215D-02  .507943332195D-05  .515375264168D+04
     .590400000000D+06 -.225380063057D-06  .251929753533D+01  .100582838058D-06
     .956887402521D+00  .282531250000D+03 -.291617331544D+01 -.828070206734D-08
    -.392873507616D-11  .100000000000D+01  .172700000000D+04  .000000000000D+00
     .340000000000D+01  .000000000000D+00 -.200234353542D-07  .980000000000D+02
     .583206000000D+06  .400000000000D+01
24 13  2 16 20  0  0.0 -.116555020213D-05 -.568434188608D-12  .000000000000D+00
     .570000000000D+02 -.360000000000D+02  .462840707745D-08  .161642154667D+01
    -.173039734364D-05  .686875311658D-03  .596418976784D-05  .515370548630D+04
     .590400000000D+06  .428408384323D-07 -.273776471958D+01  .540167093277D-07
     .959509501776D+00  .261875000000D+03  .114614819973D+00 -.828248785601D-08
    -.261082303697D-09  .100000000000D+01  .172700000000D+04  .000000000000D+00
     .240000000000D+01  .000000000000D+00  .325962901115D-08  .570000000000D+02
     .583206000000D+06  .400000000000D+01
25 13  2 16 20  0  0.0  .708280131221D-04  .295585778076D-11  .000000000000D+00
     .103000000000D+03 -.355000000000D+02  .417303096635D-08 -.502238283989D+00
    -.195764005184D-05  .217606755905D-02  .872835516930D-05  .515358921623D+04
     .590400000000D+06  .316649675369D-07 -.169006700059D+01  .614672899246D-07
     .971594334484D+00  .215437500000D+03  .555313469778D+00 -.794283085079D-08
     .850035407387D-10  .100000000000D+01  .172700000000D+04  .000000000000D+00
     .240000000000D+01  .000000000000D+00  .558793544769D-08  .103000000000D+03
     .583206000000D+06  .400000000000D+01
26 13  2 16 20  0  0.0 -.987788662314D-04  .140971678775D-10  .000000000000D+00
     .100000000000D+02  .397812500000D+02  .421696136765D-08  .219963401847D+01
     .166334211826D-05  .211791702313D-01  .467523932457D-05  .515365941811D+04
     .590400000000D+06  .162050127983D-06  .259772261033D+01 -.406056642532D-06
     .980147813148D+00  .296906250000D+03  .121928981295D+01 -.777532387345D-08
    -.453590322429D-10  .100000000000D+01  .172700000000D+04  .000000000000D+00
     .240000000000D+01  .000000000000D+00 -.605359673500D-08  .100000000000D+02
     .583206000000D+06  .400000000000D+01
28 13  2 16 20  0  0.0  .233273021877D-03  .341060513165D-11  .000000000000D+00
     .370000000000D+02 -.105937500000D+02  .381373028575D-08 -.208421195883D+01
    -.577419996262D-06  .186542272568D-01  .815838575363D-05  .515363898468D+04
     .590400000000D+06  .335276126862D-06 -.162822077242D+01 -.204890966415D-07
     .981889398103D+00  .230687500000D+03 -.178183038916D+01 -.746031075189D-08
     .172864343351D-09  .100000000000D+01  .172700000000D+04  .000000000000D+00
     .240000000000D+01  .000000000000D+00 -.107102096081D-07  .370000000000D+02
     .583206000000D+06  .400000000000D+01
29 13  2 16 20  0  0.0  .408530235291D-03  .363797880709D-11  .000000000000D+00
     .400000000000D+01 -.215000000000D+02  .454876090272D-08  .377122828222D-01
    -.106915831566D-05  .192452501506D-02  .671856105328D-05  .515369252777D+04
     .590400000000D+06 -.149011611938D-07 -.587614798984D+00 -.800937414169D-07
     .965416501655D+00  .254031250000D+03 -.110501242528D+01 -.806247869174D-08
     .173221501085D-09  .100000000000D+01  .172700000000D+04  .000000000000D+00
     .240000000000D+01  .000000000000D+00 -.977888703346D-08  .400000000000D+01
     .583206000000D+06  .400000000000D+01
30 13  2 16 20  0  0.0 -.224151648581D-03  .966338120634D-11  .000000000000D+00
     .640000000000D+02 -.341250000000D+02  .421624705218D-08 -.287371715795D+01
    -.171363353729D-05  .108450894477D-01  .816769897938D-05  .515362547112D+04
     .590400000000D+06  .109896063805D-06 -.178340719542D+01  .409781932831D-07
     .962699694546D+00  .222156250000D+03  .161108659311D+01 -.774889420112D-08
     .982183769039D-10  .100000000000D+01  .172700000000D+04  .000000000000D+00
     .240000000000D+02  .000000000000D+00 -.419095158577D-08  .640000000000D+02
     .583206000000D+06  .400000000000D+01
31 13  2 16 20  0  0.0  .302740372717D-03  .170530256582D-11  .000000000000D+00
     .520000000000D+02 -.368125000000D+02  .412660046090D-08  .583823730167D+00
    -.211596488953D-05  .810726801865D-02  .583380460739D-05  .515353955460D+04
     .590400000000D+06  .726431608200D-07 -.270683440794D+01 -.104308128357D-06
     .980954003895D+00  .278687500000D+03 -.775620235468D+00 -.809212278368D-08
    -.266796827444D-09  .100000000000D+01  .172700000000D+04  .000000000000D+00
     .240000000000D+01  .000000000000D+00 -.130385160446D-07  .520000000000D+02
     .583206000000D+06  .400000000000D+01
32 13  2 16 20  0  0.0 -.536071136594D-03 -.329691829393D-11  .000000000000D+00
     .200000000000D+02  .463125000000D+02  .486877423256D-08  .120370741083D+01
     .245124101639D-05  .115965830628D-01  .872649252415D-05  .515375242424D+04
     .590400000000D+06  .229105353355D-06  .154585660617D+01  .169500708580D-06
     .949514459248D+00  .207000000000D+03 -.396835083191D+00 -.807676500111D-08
    -.260725145963D-10  .100000000000D+01  .172700000000D+04  .000000000000D+00
     .240000000000D+01  .000000000000D+00 -.325962901115D-08  .200000000000D+02
     .583206000000D+06  .400000000000D+01
18 13  2 16 19 59 44.0  .239735469222D-03  .193267624127D-11  .000000000000D+00
     .210000000000D+02  .604062500000D+02  .527379110314D-08 -.136037882880D+01
     .328756868839D-05  .137450529728D-01  .916793942451D-05  .515376451683D+04
     .590384000000D+06  .284984707832D-06  .146162751196D+01  .180676579475D-06
     .927609230099D+00  .181843750000D+03 -.212792965496D+01 -.828784522202D-08
     .928610108910D-11  .100000000000D+01  .172700000000D+04  .000000000000D+00
     .240000000000D+01  .000000000000D+00 -.107102096081D-07  .210000000000D+02
     .584436000000D+06  .400000000000D+01
32 13  2 16 19 59 44.0 -.536070670933D-03 -.329691829393D-11  .000000000000D+00
     .450000000000D+02  .463125000000D+02  .486877423256D-08  .120137382536D+01
     .245124101639D-05  .115965837613D-01  .872649252415D-05  .515375241661D+04
     .590384000000D+06  .229105353355D-06  .154585673930D+01  .169500708580D-06
     .949514462174D+00  .207000000000D+03 -.396835100746D+00 -.807676500111D-08
    -.260725145963D-10  .100000000000D+01  .172700000000D+04  .000000000000D+00
     .240000000000D+01  .000000000000D+00 -.325962901115D-08  .450000000000D+02
     .587136000000D+06  .400000000000D+01
